FOX-1CLIFF (AO-95)      
1 43770U 18099N   26068.70885351  .00013975  00000+0  57177-3 0  9991
2 43770  97.4503 129.4306 0008293 347.1616  12.9409 15.24414887398050
ASTROCAST-0401          
1 55110U 23001DF  26068.71172895  .00009750  00000+0  37868-3 0  9995
2 55110  97.5547 160.5206 0008142 188.4231 171.6872 15.26258462176022
